NORAD_CAT_ID,OBJECT_NAME,OBJECT_TYPE,EPOCH,MEAN_MOTION,ECCENTRICITY,INCLINATION,RA_OF_ASC_NODE,ARG_OF_PERICENTER,MEAN_ANOMALY,BSTAR,MEAN_MOTION_DOT,MEAN_MOTION_DDOT,TLE_LINE0,TLE_LINE1,TLE_LINE2,SEMIMAJOR_AXIS,PERIOD,APOGEE,PERIGEE,DECAYED
54801.0,STARLINK-5429,PAYLOAD,2024-03-21 20:03:13,15.08822965,9.09e-05,53.2184,26.2526,117.2767,242.8318,-0.00014653,-2.618e-05,0.0,0 STARLINK-5429,1 54801U 22175AV  24081.83557283 -.00002618  00000-0 -14653-3 0  9992,2 54801  53.2184  26.2526 0000909 117.2767 242.8318 15.08822965 69396,6917.932,95.439,540.426,539.169,0.0
54801.0,STARLINK-5429,PAYLOAD,2024-03-22 02:24:44,15.08840913,0.0001361,53.2174,25.0693,88.4342,271.6806,2.3738e-05,9e-07,0.0,0 STARLINK-5429,1 54801U 22175AV  24082.10052044  .00000090  00000-0  23738-4 0  9993,2 54801  53.2174  25.0693 0001361  88.4342 271.6806 15.08840913 69438,6917.878,95.437,540.684,538.801,0.0
54801.0,STARLINK-5429,PAYLOAD,2024-03-22 05:35:29,15.08855164,0.0001475,53.219,24.467,121.9561,238.1574,0.00013389,1.844e-05,0.0,0 STARLINK-5429,1 54801U 22175AV  24082.23298483  .00001844  00000-0  13389-3 0  9994,2 54801  53.2190  24.4670 0001475 121.9561 238.1574 15.08855164 69452,6917.834,95.437,540.719,538.679,0.0
54801.0,STARLINK-5429,PAYLOAD,2024-03-22 19:53:58,15.08842431,0.0001679,53.22,21.7874,134.7214,225.3915,0.00011414,1.529e-05,0.0,0 STARLINK-5429,1 54801U 22175AV  24082.82915281  .00001529  00000-0  11414-3 0  9998,2 54801  53.2200  21.7874 0001679 134.7214 225.3915 15.08842431 69543,6917.873,95.437,540.899,538.576,0.0
54801.0,STARLINK-5429,PAYLOAD,2024-03-23 02:15:31,15.08837307,0.0001229,53.2184,20.6023,132.1955,227.9142,6.4275e-05,7.35e-06,0.0,0 STARLINK-5429,1 54801U 22175AV  24083.09411930  .00000735  00000-0  64275-4 0  9992,2 54801  53.2184  20.6023 0001229 132.1955 227.9142 15.08837307 69583,6917.889,95.438,540.604,538.903,0.0
54801.0,STARLINK-5429,PAYLOAD,2024-03-23 22:55:32,15.08831966,7.74e-05,53.219,16.7387,98.7453,261.3627,0.00025034,3.698e-05,0.0,0 STARLINK-5429,1 54801U 22175AV  24083.95524082  .00003698  00000-0  25034-3 0  9990,2 54801  53.2190  16.7387 0000774  98.7453 261.3627 15.08831966 71873,6917.905,95.438,540.305,539.234,0.0
54801.0,STARLINK-5429,PAYLOAD,2024-03-24 02:06:18,15.088611,0.0001714,53.2188,16.1412,123.6778,236.4377,0.00032,4.811e-05,0.0,0 STARLINK-5429,1 54801U 22175AV  24084.08770912  .00004811  00000-0  32000-3 0  9999,2 54801  53.2188  16.1412 0001714 123.6778 236.4377 15.08861100 69736,6917.816,95.436,540.867,538.495,0.0
54801.0,STARLINK-5429,PAYLOAD,2024-03-24 05:17:04,15.08864622,0.0001574,53.2183,15.5456,123.4351,236.6792,0.00036522,5.533e-05,0.0,0 STARLINK-5429,1 54801U 22175AV  24084.22018612  .00005533  00000-0  36522-3 0  9992,2 54801  53.2183  15.5456 0001574 123.4351 236.6792 15.08864622 71919,6917.805,95.436,540.759,538.581,0.0
54801.0,STARLINK-5429,PAYLOAD,2024-03-24 19:35:33,15.08844137,0.0001125,53.219,12.8693,99.5529,260.5591,0.00026776,3.977e-05,0.0,0 STARLINK-5429,1 54801U 22175AV  24084.81635833  .00003977  00000-0  26776-3 0  9997,2 54801  53.2190  12.8693 0001125  99.5529 260.5591 15.08844137 69843,6917.868,95.437,540.511,538.954,0.0
54801.0,STARLINK-5429,PAYLOAD,2024-03-24 22:46:20,15.08834658,0.0001535,53.2185,12.2758,70.4901,289.6257,0.00012293,1.669e-05,0.0,0 STARLINK-5429,1 54801U 22175AV  24084.94884518  .00001669  00000-0  12293-3 0  9992,2 54801  53.2185  12.2758 0001535  70.4901 289.6257 15.08834658 72022,6917.897,95.438,540.824,538.7,0.0
54801.0,STARLINK-5429,PAYLOAD,2024-03-25 05:07:52,15.08836261,0.0001519,53.2188,11.0851,68.744,291.3715,3.145e-05,2.13e-06,0.0,0 STARLINK-5429,1 54801U 22175AV  24085.21380210  .00000213  00000-0  31450-4 0  9994,2 54801  53.2188  11.0851 0001519  68.7440 291.3715 15.08836261 69900,6917.892,95.438,540.808,538.706,0.0
54801.0,STARLINK-5429,PAYLOAD,2024-03-25 11:29:24,15.08853713,0.0001713,53.2201,9.9016,80.3579,279.7606,0.00030092,4.506e-05,0.0,0 STARLINK-5429,1 54801U 22175AV  24085.47875488  .00004506  00000-0  30092-3 0  9997,2 54801  53.2201   9.9016 0001713  80.3579 279.7606 15.08853713 69948,6917.838,95.437,540.888,538.518,0.0
54801.0,STARLINK-5429,PAYLOAD,2024-03-25 22:37:08,15.08791346,0.0001535,53.2185,7.8126,73.6884,286.4277,-0.00091513,-0.00014803,0.0,0 STARLINK-5429,1 54801U 22175AV  24085.94246031 -.00014803  00000-0 -91513-3 0  9993,2 54801  53.2185   7.8126 0001535  73.6884 286.4277 15.08791346 72175,6918.029,95.441,540.956,538.832,0.0
54801.0,STARLINK-5429,PAYLOAD,2024-03-26 01:47:54,15.08819805,0.0001491,53.2181,7.2199,94.304,265.8123,-0.00026065,-4.431e-05,0.0,0 STARLINK-5429,1 54801U 22175AV  24086.07493579 -.00004431  00000-0 -26065-3 0  9995,2 54801  53.2181   7.2199 0001491  94.3040 265.8123 15.08819805 70035,6917.942,95.439,540.839,538.776,0.0
54801.0,STARLINK-5429,PAYLOAD,2024-03-26 11:20:13,15.08826773,0.0001301,53.218,5.4375,88.4648,271.6493,6.239e-05,7.05e-06,0.0,0 STARLINK-5429,1 54801U 22175AV  24086.47237876  .00000705  00000-0  62390-4 0  9995,2 54801  53.2180   5.4375 0001301  88.4648 271.6493 15.08826773 72251,6917.921,95.438,540.686,538.886,0.0
54801.0,STARLINK-5429,PAYLOAD,2024-03-26 19:17:09,15.08831042,0.0001285,53.217,3.9472,75.1848,284.9286,0.00037746,5.723e-05,0.0,0 STARLINK-5429,1 54801U 22175AV  24086.80358158  .00005723  00000-0  37746-3 0  9990,2 54801  53.2170   3.9472 0001285  75.1848 284.9286 15.08831042 70145,6917.908,95.438,540.662,538.884,0.0
54801.0,STARLINK-5429,PAYLOAD,2024-03-26 22:27:55,15.0884373,0.0001866,53.2191,3.3594,103.6604,256.4596,0.00058585,9.049e-05,0.0,0 STARLINK-5429,1 54801U 22175AV  24086.93605786  .00009049  00000-0  58585-3 0  9995,2 54801  53.2191   3.3594 0001866 103.6604 256.4596 15.08843730 72326,6917.869,95.437,541.025,538.443,0.0
54801.0,STARLINK-5429,PAYLOAD,2024-03-27 01:38:41,15.08857383,0.0001587,53.2177,2.7616,88.4859,271.6315,0.00077425,0.00012061,0.0,0 STARLINK-5429,1 54801U 22175AV  24087.06853245  .00012061  00000-0  77425-3 0  9997,2 54801  53.2177   2.7616 0001587  88.4859 271.6315 15.08857383 70189,6917.827,95.436,540.79,538.594,0.0
54801.0,STARLINK-5429,PAYLOAD,2024-03-27 11:10:59,15.08871108,0.0001361,53.2177,0.9755,67.655,292.4586,0.0008272,0.00012913,0.0,0 STARLINK-5429,1 54801U 22175AV  24087.46596148  .00012913  00000-0  82720-3 0  9997,2 54801  53.2177   0.9755 0001361  67.6550 292.4586 15.08871108 72409,6917.785,95.436,540.592,538.709,0.0
54801.0,STARLINK-5429,PAYLOAD,2024-03-27 17:32:32,15.08832832,0.0002505,53.2176,359.7875,80.7196,279.4079,-8.0749e-05,-1.573e-05,0.0,0 STARLINK-5429,1 54801U 22175AV  24087.73093613 -.00001573  00000-0 -80749-4 0  9998,2 54801  53.2176 359.7875 0002505  80.7196 279.4079 15.08832832 70286,6917.902,95.438,541.5,538.034,0.0
54801.0,STARLINK-5429,PAYLOAD,2024-03-27 22:18:42,15.08832968,0.0001743,53.2174,358.8969,82.5084,277.6106,0.00016111,2.276e-05,0.0,0 STARLINK-5429,1 54801U 22175AV  24087.92965705  .00002276  00000-0  16111-3 0  9999,2 54801  53.2174 358.8969 0001743  82.5084 277.6106 15.08832968 72471,6917.902,95.438,540.973,538.561,0.0
54801.0,STARLINK-5429,PAYLOAD,2024-03-28 03:04:51,15.0884463,0.0001448,53.2173,358.0027,85.1952,274.9205,0.00011221,1.499e-05,0.0,0 STARLINK-5429,1 54801U 22175AV  24088.12837121  .00001499  00000-0  11221-3 0  9995,2 54801  53.2173 358.0027 0001448  85.1952 274.9205 15.08844630 70345,6917.866,95.437,540.733,538.73,0.0
54801.0,STARLINK-5429,PAYLOAD,2024-03-28 11:01:46,15.08851243,0.0001298,53.2168,356.5152,88.5899,271.5242,9.652e-05,1.249e-05,0.0,0 STARLINK-5429,1 54801U 22175AV  24088.45956548  .00001249  00000-0  96520-4 0  9995,2 54801  53.2168 356.5152 0001298  88.5899 271.5242 15.08851243 72558,6917.846,95.437,540.609,538.813,0.0
54801.0,STARLINK-5429,PAYLOAD,2024-03-28 22:09:29,15.08830433,0.0001275,53.217,354.4344,98.2034,261.9103,-0.00028882,-4.88e-05,0.0,0 STARLINK-5429,1 54801U 22175AV  24088.92325327 -.00004880  00000-0 -28882-3 0  9993,2 54801  53.2170 354.4344 0001275  98.2034 261.9103 15.08830433 72620,6917.91,95.438,540.657,538.893,0.0
54801.0,STARLINK-5429,PAYLOAD,2024-03-29 01:20:15,15.08840176,0.0001372,53.217,353.8428,96.382,263.7329,-0.00014419,-2.582e-05,0.0,0 STARLINK-5429,1 54801U 22175AV  24089.05573173 -.00002582  00000-0 -14419-3 0  9990,2 54801  53.2170 353.8428 0001372  96.3820 263.7329 15.08840176 70483,6917.88,95.438,540.694,538.796,0.0
54801.0,STARLINK-5429,PAYLOAD,2024-03-29 10:52:33,15.08848446,0.0001211,53.2172,352.0565,94.9021,265.211,0.00011106,1.48e-05,0.0,0 STARLINK-5429,1 54801U 22175AV  24089.45316757  .00001480  00000-0  11106-3 0  9991,2 54801  53.2172 352.0565 0001211  94.9021 265.2110 15.08848446 72707,6917.855,95.437,540.557,538.882,0.0
54801.0,STARLINK-5429,PAYLOAD,2024-03-29 22:00:16,15.08844287,0.0001781,53.2173,349.977,87.0906,273.029,0.00030425,4.558e-05,0.0,0 STARLINK-5429,1 54801U 22175AV  24089.91685305  .00004558  00000-0  30425-3 0  9994,2 54801  53.2173 349.9770 0001781  87.0906 273.0290 15.08844287 72770,6917.867,95.437,540.964,538.5,0.0
54801.0,STARLINK-5429,PAYLOAD,2024-03-30 10:43:20,15.0885625,0.000142,53.2169,347.5965,103.9322,256.1828,0.00046295,7.091e-05,0.0,0 STARLINK-5429,1 54801U 22175AV  24090.44676593  .00007091  00000-0  46295-3 0  9990,2 54801  53.2169 347.5965 0001420 103.9322 256.1828 15.08856250 70696,6917.831,95.437,540.678,538.713,0.0
54801.0,STARLINK-5429,PAYLOAD,2024-03-30 17:04:53,15.0884673,0.0002211,53.2173,346.4091,83.3901,276.7343,0.00036478,5.523e-05,0.0,0 STARLINK-5429,1 54801U 22175AV  24090.71173254  .00005523  00000-0  36478-3 0  9996,2 54801  53.2173 346.4091 0002211  83.3901 276.7343 15.08846730 70739,6917.86,95.437,541.254,538.195,0.0
54801.0,STARLINK-5429,PAYLOAD,2024-03-30 23:26:26,15.08841344,0.0001371,53.217,345.2194,88.4019,271.713,0.00021704,3.168e-05,0.0,0 STARLINK-5429,1 54801U 22175AV  24090.97669373  .00003168  00000-0  21704-3 0  9995,2 54801  53.2170 345.2194 0001371  88.4019 271.7130 15.08841344 72938,6917.876,95.437,540.69,538.793,0.0
